[{"OBJECT_NAME":"ONEWEB-0572","OBJECT_ID":"2023-004M","EPOCH":"2026-03-09T21:23:09.333600","MEAN_MOTION":13.17648059,"ECCENTRICITY":0.00020516,"INCLINATION":87.9152,"RA_OF_ASC_NODE":25.5842,"ARG_OF_PERICENTER":78.9085,"MEAN_ANOMALY":281.2277,"EPHEMERIS_TYPE":0,"CLASSIFICATION_TYPE":"U","NORAD_CAT_ID":55151,"ELEMENT_SET_NO":999,"REV_AT_EPOCH":15440,"BSTAR":8.4140597e-5,"MEAN_MOTION_DOT":4.6e-7,"MEAN_MOTION_DDOT":0},{"OBJECT_NAME":"THORAD DELTA 1 DEB","OBJECT_ID":"1974-089AH","EPOCH":"2026-03-09T12:07:36.683616","MEAN_MOTION":13.34240522,"ECCENTRICITY":0.01209844,"INCLINATION":101.3559,"RA_OF_ASC_NODE":277.9529,"ARG_OF_PERICENTER":142.9323,"MEAN_ANOMALY":248.2297,"EPHEMERIS_TYPE":0,"CLASSIFICATION_TYPE":"U","NORAD_CAT_ID":8167,"ELEMENT_SET_NO":999,"REV_AT_EPOCH":41409,"BSTAR":0.0080162218,"MEAN_MOTION_DOT":4.113e-5,"MEAN_MOTION_DDOT":0}]
